[{"OBJECT_NAME":"STARLINK-6157","OBJECT_ID":"2023-061F","EPOCH":"2026-03-09T22:00:01.999584","MEAN_MOTION":15.1513954,"ECCENTRICITY":0.00021581,"INCLINATION":43,"RA_OF_ASC_NODE":195.7762,"ARG_OF_PERICENTER":270.2973,"MEAN_ANOMALY":110.2271,"EPHEMERIS_TYPE":0,"CLASSIFICATION_TYPE":"U","NORAD_CAT_ID":56379,"ELEMENT_SET_NO":999,"REV_AT_EPOCH":572,"BSTAR":0.064935447,"MEAN_MOTION_DOT":0.01347423,"MEAN_MOTION_DDOT":0},{"OBJECT_NAME":"GEOSCAN 5 (RS92S5)","OBJECT_ID":"2025-155R","EPOCH":"2026-03-09T22:01:07.273920","MEAN_MOTION":15.30265233,"ECCENTRICITY":0.00070849,"INCLINATION":97.4462,"RA_OF_ASC_NODE":37.7456,"ARG_OF_PERICENTER":154.5846,"MEAN_ANOMALY":205.5745,"EPHEMERIS_TYPE":0,"CLASSIFICATION_TYPE":"U","NORAD_CAT_ID":64891,"ELEMENT_SET_NO":999,"REV_AT_EPOCH":6562,"BSTAR":0.00068639307,"MEAN_MOTION_DOT":0.00020065,"MEAN_MOTION_DDOT":0}]
